INTELSAT 701 (IS-701)   
1 22871U 93066A   16092.15469265 -.00000225  00000-0  00000+0 0  9999
2 22871   3.3566  69.4019 0003488 304.9285 201.7754  1.00273210 81964
INTELSAT 702 (IS-702)   
1 23124U 94034A   16091.57083124  .00000000  00000-0  10000-3 0  9993
2 23124   3.7000  67.6448 0001762 214.6417 145.5502  1.00274491 93989
INTELSAT 26 (IS-26)     
1 24732U 97007A   16092.04746994  .00000017  00000-0  00000+0 0  9999
2 24732   6.7576  53.3880 0004458 338.3881 237.3437  1.00271144 69883
GALAXY 25 (G-25)        
1 24812U 97026A   16090.73493515 -.00000173  00000-0  00000+0 0  9995
2 24812   0.0253 261.8098 0003108 111.6581 346.5378  1.00272266 68958
INTELSAT 5 (IS-5)       
1 24916U 97046A   16091.24322088  .00000000  00000-0  10000-3 0  9998
2 24916   2.6810  73.2962 0004048 301.0574  59.2260  1.00267365 68217
INTELSAT 805 (IS-805)   
1 25371U 98037A   16092.30704459 -.00000043  00000-0  00000+0 0  9992
2 25371   0.0088 160.5767 0002572 197.7447 111.2945  1.00272627 65172
INTELSAT 7 (IS-7)       
1 25473U 98052A   16090.48789818  .00000004  00000-0  00000-0 0  9998
2 25473   2.3362  76.1807 0003181  68.3372 292.0947  0.98210318 63992
AFRISTAR                
1 25515U 98063A   16092.19394308  .00000115  00000-0  00000+0 0  9995
2 25515   2.4475  70.7661 0004546 302.5685 267.4378  1.00272970 63731
INTELSAT 8 (IS-8)       
1 25522U 98065A   16092.30905741 -.00000043  00000-0  00000+0 0  9998
2 25522   0.1020  86.1083 0003773 311.7529  72.4750  1.00272200 63733
GALAXY 27 (G-27)        
1 25922U 99052A   16091.50037938 -.00000015  00000-0  00000+0 0  9993
2 25922   2.3494  75.2883 0005813 316.3691  43.9701  1.00272570 60490
GALAXY 11 (G-11)        
1 26038U 99071A   16091.79650020  .00000109  00000-0  00000+0 0  9990
2 26038   0.0629  82.3626 0008906 243.7226 192.6545  1.00534788 59714
SIRIUS-1                
1 26390U 00035A   16088.30985144  .00000012  00000-0  00000-0 0  9998
2 26390  59.6700 233.5058 2577536 266.7836  64.4019  1.00285025 14291
INTELSAT 9 (IS-9)       
1 26451U 00043A   16091.54253885 -.00000280  00000-0  00000+0 0  9992
2 26451   2.6666  73.5436 0002888 314.4255 313.5776  1.00274381 57442
SIRIUS-2                
1 26483U 00051A   16089.35088991  .00000078  00000-0  00000-0 0  9991
2 26483  64.5005 113.6445 2830055 266.3253 202.1522  1.00284039  7760
INTELSAT 12 (IS-12)     
1 26590U 00068A   16092.07241032  .00000125  00000-0  00000+0 0  9990
2 26590   0.0336 253.3574 0002240 107.2349 260.2963  1.00270255 56404
INTELSAT 1R (IS-1R)     
1 26608U 00072A   16091.51566471 -.00000294  00000-0  00000+0 0  9998
2 26608   0.0287 285.0440 0001130 309.3736  90.5510  1.00272271 56250
SIRIUS-3                
1 26626U 00077A   16090.63510660 -.00000110  00000-0  00000+0 0  9991
2 26626  64.4282 353.5727 2656073 268.3786  61.4958  1.00281450 56163
XM-1 (ROLL)             
1 26761U 01018A   16091.44770624 -.00000217  00000-0  00000+0 0  9993
2 26761   0.1429  89.2113 0001679 346.6365  86.6844  0.99010079 54628
INTELSAT 10 (IS-10)     
1 26766U 01019A   16092.12110071  .00000114  00000-0  00000+0 0  9994
2 26766   0.5997  86.9109 0002411 291.1750 262.9292  1.00274033 54534
INTELSAT 901 (IS-901)   
1 26824U 01024A   16092.26713831 -.00000154  00000-0  00000+0 0  9998
2 26824   0.0099 222.3286 0002449 160.3813 245.5124  1.00269045 54209
INTELSAT 902 (IS-902)   
1 26900U 01039A   16092.06507547  .00000021  00000-0  00000+0 0  9994
2 26900   0.0119 129.0999 0003056 256.2980 249.8716  1.00271613 53371
DIRECTV 4S              
1 26985U 01052A   16092.35234141 -.00000126  00000-0  00000+0 0  9998
2 26985   0.0183 172.9122 0002105 206.5958 196.2772  1.00272522 52609
INTELSAT 904 (IS-904)   
1 27380U 02007A   16092.06105322  .00000036  00000-0  00000+0 0  9994
2 27380   0.0290 285.1272 0003145  94.0861 252.6044  1.00273093 51690
INTELSAT 903 (IS-903)   
1 27403U 02016A   16092.39947321 -.00000251  00000-0  00000+0 0  9999
2 27403   0.0161 124.2901 0003154 250.9355 284.2522  1.00272612 51256
DIRECTV 5 (TEMPO 1)     
1 27426U 02023A   16090.78208066 -.00000067  00000-0  00000+0 0  9994
2 27426   0.0229 199.3382 0003721 183.9116 336.7670  1.00269825 50902
INTELSAT 905 (IS-905)   
1 27438U 02027A   16092.09767769 -.00000197  00000-0  00000+0 0  9991
2 27438   0.0347 264.2103 0002721  92.8299 203.4990  1.00272789 50579
GALAXY 3C (G-3C)        
1 27445U 02030A   16090.74030277 -.00000162  00000-0  00000+0 0  9992
2 27445   0.0140 216.8048 0001634 142.6822   0.5129  1.00270509 50553
INTELSAT 906 (IS-906)   
1 27513U 02041A   16092.12191603  .00000002  00000-0  00000+0 0  9997
2 27513   0.0206 252.1942 0002713 119.7939 285.9363  1.00272149 49572
INTELSAT 907 (IS-907)   
1 27683U 03007A   16091.55048722 -.00000214  00000-0  00000+0 0  9993
2 27683   0.0222 249.5226 0002706 119.9234 350.5568  1.00271657 47998
GALAXY 12 (G-12)        
1 27715U 03013B   16092.21577262  .00000046  00000-0  00000+0 0  9998
2 27715   0.0242 123.3261 0001884 258.6903 116.6638  1.00271067 47617
GALAXY 23 (G-23)        
1 27854U 03034A   16090.51535459  .00000003  00000-0  00000+0 0  9991
2 27854   0.0187 127.0853 0003307 248.5497 237.2042  1.00270461 46216
GALAXY 13 (HORIZONS-1)  
1 27954U 03044A   16092.16733067  .00000036  00000-0  00000+0 0  9997
2 27954   0.0107 210.2591 0000807  79.5919 193.3088  1.00271196 45774
DIRECTV 7S              
1 28238U 04016A   16091.40240499 -.00000011  00000-0  00000+0 0  9995
2 28238   0.0448 300.0318 0003065  79.7731 195.1890  1.00273087 43664
INTELSAT 10-02          
1 28358U 04022A   16092.20646293 -.00000023  00000-0  00000+0 0  9999
2 28358   0.0182 146.1963 0000725 234.0009 243.1327  1.00273212 43233
XM-3 (RHYTHM)           
1 28626U 05008A   16092.46146700 -.00000218  00000-0  00000+0 0  9994
2 28626   0.0462  32.9442 0000575  88.3004 150.0118  1.00269436 40676
SPACEWAY 1              
1 28644U 05015A   16091.13186206 -.00000113  00000-0  00000+0 0  9994
2 28644   0.0087 206.2669 0000035 259.1742  28.0400  1.00269524 40119
DIRECTV 8               
1 28659U 05019A   16090.75641532 -.00000126  00000-0  00000+0 0  9993
2 28659   0.0122 172.2994 0003331 203.8608 343.8504  1.00269783 39788
GALAXY 28 (G-28)        
1 28702U 05022A   16091.45391275 -.00000196  00000-0  00000+0 0  9997
2 28702   0.0206 175.5242 0000326 194.3408 253.7351  1.00270169 39425
GALAXY 14 (G-14)        
1 28790U 05030A   16092.41741598  .00000023  00000-0  00000+0 0  9995
2 28790   0.0083 131.1111 0002394 243.2051 201.1664  1.00273777 38918
GALAXY 15 (G-15)        
1 28884U 05041A   16092.42400303  .00000066  00000-0  00000+0 0  9995
2 28884   0.0269  84.1537 0001430 300.0469 185.6455  1.00274672 38236
SPACEWAY 2              
1 28903U 05046B   16091.39236008 -.00000138  00000-0  00000+0 0  9997
2 28903   0.0378  37.4248 0001766 278.7508 275.2187  1.00271345 38092
GALAXY 16 (G-16)        
1 29236U 06023A   16092.35016096 -.00000140  00000-0  00000+0 0  9996
2 29236   0.0235 219.5117 0002491 185.6462 172.0068  1.00271314 35874
DIRECTV 9S              
1 29494U 06043A   16091.46287804 -.00000125  00000-0  00000+0 0  9995
2 29494   0.0102 180.1573 0003401 198.5281 236.1036  1.00271590 34700
XM-4 (BLUES)            
1 29520U 06049A   16092.16690644 -.00000036  00000-0  00000+0 0  9990
2 29520   0.0215  14.0800 0000247  82.9999  37.7252  1.00272896 34604
GALAXY 17 (G-17)        
1 31307U 07016B   16090.38405002 -.00000185  00000-0  00000+0 0  9990
2 31307   0.0357  11.5098 0003477   3.3030 220.6430  1.00271925 32666
DIRECTV 10              
1 31862U 07032A   16090.76192237 -.00000114  00000-0  00000+0 0  9991
2 31862   0.0421  13.2755 0001061  89.7168 257.0169  1.00273830 32008
SPACEWAY 3              
1 32018U 07036A   16092.46691645 -.00000164  00000-0  00000+0 0  9990
2 32018   0.0342  46.2936 0000185  20.5538 196.5346  1.00271191 31732
INTELSAT 11 (IS-11)     
1 32253U 07044B   16091.54853666 -.00000280  00000-0  00000+0 0  9990
2 32253   0.0266 237.0607 0003061 139.9598 326.7847  1.00271843 31120
HORIZONS-2              
1 32388U 07063B   16091.57504109 -.00000193  00000-0  00000+0 0  9991
2 32388   0.0134 162.2885 0003075 223.3917  95.5448  1.00268738 30483
DIRECTV 11              
1 32729U 08013A   16091.39474581 -.00000138  00000-0  00000+0 0  9995
2 32729   0.0310  11.0019 0003889 299.6401 281.5063  1.00271619 29531
GALAXY 18 (G-18)        
1 32951U 08024A   16091.29417161  .00000000  00000-0  10000-3 0  9996
2 32951   0.0238 150.7912 0003148 232.8940 148.2972  1.00270094 28695
INTELSAT 25 (IS-25)     
1 33153U 08034A   16092.39574322 -.00000237  00000-0  00000+0 0  9995
2 33153   0.0188 262.7724 0002904  85.1457 313.2331  1.00272778 28245
GALAXY 19 (G-19)        
1 33376U 08045A   16092.46588950 -.00000152  00000-0  00000+0 0  9990
2 33376   0.0105 210.0589 0003043 168.8869 242.0016  1.00271948 27445
SIRIUS FM-5             
1 35493U 09034A   16092.46691645 -.00000158  00000-0  00000+0 0  9993
2 35493   0.0349 278.4296 0000343 178.4754 165.4022  1.00270885 24586
INTELSAT 14 (IS-14)     
1 36097U 09064A   16091.59892482 -.00000285  00000-0  00000+0 0  9993
2 36097   0.0203 206.0767 0002293 162.8025 351.1249  1.00270611 23312
INTELSAT 15 (IS-15)     
1 36106U 09067A   16090.80167381 -.00000196  00000-0  00000+0 0  9994
2 36106   0.0357 281.3330 0002760 108.0011 173.0187  1.00271491 23196
DIRECTV 12              
1 36131U 09075A   16091.13186277 -.00000114  00000-0  00000+0 0  9993
2 36131   0.0084 204.3901 0000097  96.1516 193.0573  1.00270222 22986
INTELSAT 16 (IS-16)     
1 36397U 10006A   16092.46623949 -.00000298  00000-0  00000+0 0  9995
2 36397   0.0157 134.2733 0001969 227.7347 297.9820  1.00272398 22343
XM-5                    
1 37185U 10053A   16091.29770766 -.00000216  00000-0  00000+0 0  9993
2 37185   0.0337 279.2385 0000596 207.8192  83.9821  1.00269018 20048
INTELSAT 17 (IS-17)     
1 37238U 10065B   16092.12176558 -.00000014  00000-0  00000+0 0  9993
2 37238   0.0129 210.5026 0002673 157.3242 291.9014  1.00271275 19523
INTELSAT NEW DAWN       
1 37392U 11016A   16091.23885711  .00000144  00000-0  00000+0 0  9993
2 37392   0.0286 247.2985 0001045  80.4568 340.0652  1.00274744 18110
INTELSAT 18 (IS-18)     
1 37834U 11056A   16091.73291005  .00000041  00000-0  00000+0 0  9996
2 37834   0.0199 180.1006 0002007 207.9706 245.3083  1.00271084 16456
INTELSAT 22 (IS-22)     
1 38098U 12011A   16091.53202622  .00000000  00000-0  10000-3 0  9996
2 38098   0.0349  58.8037 0002318 305.1172  89.0599  1.00269426 14656
INTELSAT 19 (IS-19)     
1 38356U 12030A   16092.01173396 -.00000069  00000-0  00000+0 0  9994
2 38356   0.0175 300.4861 0003078  75.9117 343.6099  1.00272348 14129
INTELSAT 20 (IS-20)     
1 38740U 12043A   16091.28441502 -.00000036  00000-0  00000+0 0  9994
2 38740   0.0194 189.9039 0000140 115.5678  54.5271  1.00270282 13432
INTELSAT 21 (IS-21)     
1 38749U 12045A   16091.49987079 -.00000297  00000-0  00000+0 0  9991
2 38749   0.0127 201.8029 0002572 174.0335 295.4072  1.00271555 13238
INTELSAT 23 (IS-23)     
1 38867U 12057A   16091.39464118 -.00000296  00000-0  00000+0 0  9997
2 38867   0.0164 250.5343 0001938 125.9802 261.7408  1.00271353 12716
SIRIUS FM-6             
1 39360U 13058A   16091.79601478 -.00000030  00000-0  00000+0 0  9990
2 39360   0.0158 106.7182 0000510 214.5595  38.7164  1.00274401  8959
INTELSAT 30 (IS-30)     
1 40271U 14062A   16090.50354971 -.00000162  00000-0  00000+0 0  9996
2 40271   0.0126 166.0840 0000397 273.0827 195.3649  1.00271495  5357
INTELSAT 34             
1 40874U 15039A   16090.31455109 -.00000296  00000-0  00000+0 0  9992
2 40874   0.0062 196.2874 0000493 325.5768  83.9880  1.00271589  2261
INTELSAT 29E            
1 41308U 16004A   16091.51566471 -.00000294  00000-0  00000+0 0  9994
2 41308   0.0660 330.8566 0002486  49.3319 304.7487  1.00271507   758
